GLOBALSTAR M075         
1 37192U 10054E   24344.53735620 -.00000089  00000+0  82565-4 0  9997
2 37192  51.9967  38.9785 0000420 109.9645  39.0836 12.62269880652423
GLOBALSTAR M073         
1 37193U 10054F   24343.87897267 -.00000088  00000+0  89095-4 0  9994
2 37193  52.0073 314.6566 0000318  33.0881   2.8374 12.62273657653805
GLOBALSTAR M083         
1 37739U 11033A   24343.90198421 -.00000074  00000+0  16859-3 0  9990
2 37739  51.9862 263.5790 0000671  76.3733   3.9934 12.62269124622820
GLOBALSTAR M088         
1 37740U 11033B   24344.49646247 -.00000076  00000+0  15403-3 0  9997
2 37740  51.9702 167.4180 0001105  99.4634 284.2398 12.62266381618734
GLOBALSTAR M091         
1 37741U 11033C   24344.43264924 -.00000076  00000+0  15495-3 0  9991
2 37741  51.9978 130.8287 0001150 120.0900 272.3505 12.62271639619482
GLOBALSTAR M085         
1 37742U 11033D   24344.05368285 -.00000085  00000+0  10221-3 0  9997
2 37742  51.9872  83.1871 0000924 132.2142  38.4794 12.62269996620178
GLOBALSTAR M081         
1 37743U 11033E   24344.45565581 -.00000095  00000+0  46512-4 0  9994
2 37743  51.9963  84.6326 0000659 143.1337 295.1921 12.62273930620260
GLOBALSTAR M089         
1 37744U 11033F   24343.56061080 -.00000080  00000+0  13325-3 0  9990
2 37744  51.9950  41.6243 0000210  91.5582  56.6076 12.62273082620864
